NUSAT-47                
1 66743U 25276CF  26186.13180870  .00009839  00000+0  45298-3 0  9998
2 66743  97.4179 259.4575 0000613   4.5754 355.5486 15.20507189 33153
NUSAT-53 (JANE GOODALL) 
1 68432U 26067S   26185.85810324  .00008232  00000+0  39909-3 0  9994
2 68432  97.4569 144.1144 0001851  20.2420 339.8888 15.18770569 14628
NUSAT-54 (BRANCA MARQU*)
1 68442U 26067AC  26185.84393366  .00009144  00000+0  45365-3 0  9992
2 68442  97.4555 143.9591 0004998  31.5256 328.6277 15.17924058 14614
