{"fetched_at":"2026-07-05T12:48:25.991Z","source":"https://celestrak.org/NORAD/elements/gp.php?NAME=NUSAT&FORMAT=JSON","constellation":"satellogic","records":[{"OBJECT_NAME":"NUSAT-47","OBJECT_ID":"2025-276CF","EPOCH":"2026-07-05T03:09:48.271680","CLASSIFICATION_TYPE":"U","MEAN_MOTION":15.20507189,"ECCENTRICITY":0.00006136,"INCLINATION":97.4179,"RA_OF_ASC_NODE":259.4575,"ARG_OF_PERICENTER":4.5754,"MEAN_ANOMALY":355.5486,"EPHEMERIS_TYPE":0,"NORAD_CAT_ID":66743,"ELEMENT_SET_NO":999,"REV_AT_EPOCH":3315,"BSTAR":0.00045297876,"MEAN_MOTION_DOT":0.00009839,"MEAN_MOTION_DDOT":0},{"OBJECT_NAME":"NUSAT-53 (JANE GOODALL)","OBJECT_ID":"2026-067S","EPOCH":"2026-07-04T20:35:40.119936","CLASSIFICATION_TYPE":"U","MEAN_MOTION":15.18770569,"ECCENTRICITY":0.00018512,"INCLINATION":97.4569,"RA_OF_ASC_NODE":144.1144,"ARG_OF_PERICENTER":20.242,"MEAN_ANOMALY":339.8888,"EPHEMERIS_TYPE":0,"NORAD_CAT_ID":68432,"ELEMENT_SET_NO":999,"REV_AT_EPOCH":1462,"BSTAR":0.00039908848,"MEAN_MOTION_DOT":0.00008232,"MEAN_MOTION_DDOT":0},{"OBJECT_NAME":"NUSAT-54 (BRANCA MARQUES)","OBJECT_ID":"2026-067AC","EPOCH":"2026-07-04T20:15:15.868224","CLASSIFICATION_TYPE":"U","MEAN_MOTION":15.17924058,"ECCENTRICITY":0.0004998,"INCLINATION":97.4555,"RA_OF_ASC_NODE":143.9591,"ARG_OF_PERICENTER":31.5256,"MEAN_ANOMALY":328.6277,"EPHEMERIS_TYPE":0,"NORAD_CAT_ID":68442,"ELEMENT_SET_NO":999,"REV_AT_EPOCH":1461,"BSTAR":0.00045365124,"MEAN_MOTION_DOT":0.00009144,"MEAN_MOTION_DDOT":0}]}
